NORAD_CAT_ID,OBJECT_NAME,OBJECT_TYPE,EPOCH,MEAN_MOTION,ECCENTRICITY,INCLINATION,RA_OF_ASC_NODE,ARG_OF_PERICENTER,MEAN_ANOMALY,BSTAR,MEAN_MOTION_DOT,MEAN_MOTION_DDOT,TLE_LINE0,TLE_LINE1,TLE_LINE2,SEMIMAJOR_AXIS,PERIOD,APOGEE,PERIGEE,DECAYED
50831.0,STARLINK-3299,PAYLOAD,2024-02-18 19:47:29,15.08839163,0.0001381,53.2172,295.461,109.8192,250.2949,0.00010178,1.332e-05,0.0,0 STARLINK-3299,1 50831U 22001AE  24049.82464402  .00001332  00000-0  10178-3 0  9990,2 50831  53.2172 295.4610 0001381 109.8192 250.2949 15.08839163118475,6917.883,95.438,540.703,538.793,0.0
50831.0,STARLINK-3299,PAYLOAD,2024-02-18 22:58:15,15.08842458,0.0001433,53.2167,294.8712,89.9801,270.1355,3.5606e-05,2.79e-06,0.0,0 STARLINK-3299,1 50831U 22001AE  24049.95712495  .00000279  00000-0  35606-4 0  9995,2 50831  53.2167 294.8712 0001433  89.9801 270.1355 15.08842458117223,6917.873,95.437,540.729,538.747,0.0
50831.0,STARLINK-3299,PAYLOAD,2024-02-19 02:09:01,15.08851868,0.0001247,53.2165,294.2724,93.5902,266.5233,1.4889e-05,-5.1e-07,0.0,0 STARLINK-3299,1 50831U 22001AE  24050.08959827 -.00000051  00000-0  14889-4 0  9992,2 50831  53.2165 294.2724 0001247  93.5902 266.5233 15.08851868118516,6917.844,95.437,540.572,538.846,0.0
50831.0,STARLINK-3299,PAYLOAD,2024-02-19 19:38:16,15.08833296,0.000141,53.2161,290.9981,106.8031,253.3116,-1.3784e-05,-5.07e-06,0.0,0 STARLINK-3299,1 50831U 22001AE  24050.81825203 -.00000507  00000-0 -13784-4 0  9993,2 50831  53.2161 290.9981 0001410 106.8031 253.3116 15.08833296118624,6917.901,95.438,540.741,538.79,0.0
50831.0,STARLINK-3299,PAYLOAD,2024-02-19 22:49:03,15.0883393,0.0001363,53.2169,290.4086,103.9716,256.1427,-5.7363e-06,-3.79e-06,0.0,0 STARLINK-3299,1 50831U 22001AE  24050.95073125 -.00000379  00000-0 -57363-5 0  9995,2 50831  53.2169 290.4086 0001363 103.9716 256.1427 15.08833930117370,6917.899,95.438,540.707,538.821,0.0
50831.0,STARLINK-3299,PAYLOAD,2024-02-20 08:21:21,15.08835612,0.0001296,53.2162,288.6242,102.9386,257.1751,2.8373e-06,-2.43e-06,0.0,0 STARLINK-3299,1 50831U 22001AE  24051.34817108 -.00000243  00000-0  28373-5 0  9994,2 50831  53.2162 288.6242 0001296 102.9386 257.1751 15.08835612117430,6917.894,95.438,540.655,538.862,0.0
50831.0,STARLINK-3299,PAYLOAD,2024-02-20 21:04:27,15.08835356,0.0001311,53.2172,286.2457,97.853,262.2611,-2.4577e-05,-6.79e-06,0.0,0 STARLINK-3299,1 50831U 22001AE  24051.87809453 -.00000679  00000-0 -24577-4 0  9991,2 50831  53.2172 286.2457 0001311  97.8530 262.2611 15.08835356117510,6917.895,95.438,540.667,538.853,0.0
50831.0,STARLINK-3299,PAYLOAD,2024-02-21 00:15:13,15.08839189,0.0001376,53.2177,285.6518,99.7871,260.3277,1.0134e-05,-1.27e-06,0.0,0 STARLINK-3299,1 50831U 22001AE  24052.01057133 -.00000127  00000-0  10134-4 0  9999,2 50831  53.2177 285.6518 0001376  99.7871 260.3277 15.08839189118804,6917.883,95.438,540.7,538.796,0.0
50831.0,STARLINK-3299,PAYLOAD,2024-02-21 08:12:08,15.08843506,0.0001392,53.2177,284.1653,99.989,260.1259,-1.7639e-05,-5.69e-06,0.0,0 STARLINK-3299,1 50831U 22001AE  24052.34176952 -.00000569  00000-0 -17639-4 0  9994,2 50831  53.2177 284.1653 0001392  99.9890 260.1259 15.08843506117589,6917.87,95.437,540.698,538.772,0.0
50831.0,STARLINK-3299,PAYLOAD,2024-02-21 22:30:37,15.0883972,0.0001366,53.2174,281.4899,106.4637,253.6506,0.00010514,1.386e-05,0.0,0 STARLINK-3299,1 50831U 22001AE  24052.93792968  .00001386  00000-0  10514-3 0  9990,2 50831  53.2174 281.4899 0001366 106.4637 253.6506 15.08839720117677,6917.881,95.438,540.691,538.801,0.0
50831.0,STARLINK-3299,PAYLOAD,2024-02-22 08:02:55,15.08842956,0.0001399,53.2179,279.7041,93.4359,266.6793,6.3189e-05,7.18e-06,0.0,0 STARLINK-3299,1 50831U 22001AE  24053.33536955  .00000718  00000-0  63189-4 0  9992,2 50831  53.2179 279.7041 0001399  93.4359 266.6793 15.08842956119009,6917.871,95.437,540.704,538.769,0.0
50831.0,STARLINK-3299,PAYLOAD,2024-02-22 19:10:38,15.08836701,0.0001468,53.2182,277.6225,88.5653,271.5508,5.9375e-05,6.57e-06,0.0,0 STARLINK-3299,1 50831U 22001AE  24053.79905470  .00000657  00000-0  59375-4 0  9998,2 50831  53.2182 277.6225 0001468  88.5653 271.5508 15.08836701119070,6917.89,95.438,540.771,538.74,0.0
50831.0,STARLINK-3299,PAYLOAD,2024-02-22 22:21:24,15.08840175,0.0001363,53.2174,277.0281,86.7886,273.3262,3.2065e-05,2.22e-06,0.0,0 STARLINK-3299,1 50831U 22001AE  24053.93153325  .00000222  00000-0  32065-4 0  9993,2 50831  53.2174 277.0281 0001363  86.7886 273.3262 15.08840175117827,6917.88,95.438,540.688,538.802,0.0
50831.0,STARLINK-3299,PAYLOAD,2024-02-23 07:53:43,15.08841714,0.0001415,53.2176,275.2442,87.4071,272.7083,3.411e-05,2.55e-06,0.0,0 STARLINK-3299,1 50831U 22001AE  24054.32897211  .00000255  00000-0  34110-4 0  9995,2 50831  53.2176 275.2442 0001415  87.4071 272.7083 15.08841714117880,6917.875,95.437,540.719,538.761,0.0
50831.0,STARLINK-3299,PAYLOAD,2024-02-23 20:36:48,15.0884255,0.0001294,53.2162,272.8659,88.8681,271.2459,4.3104e-05,3.98e-06,0.0,0 STARLINK-3299,1 50831U 22001AE  24054.85889047  .00000398  00000-0  43104-4 0  9992,2 50831  53.2162 272.8659 0001294  88.8681 271.2459 15.08842550119236,6917.873,95.437,540.633,538.842,0.0
50831.0,STARLINK-3299,PAYLOAD,2024-02-23 22:12:11,15.0884439,0.0001285,53.2165,272.569,87.9264,272.1875,1.8307e-05,4e-08,0.0,0 STARLINK-3299,1 50831U 22001AE  24054.92512993  .00000004  00000-0  18307-4 0  9994,2 50831  53.2165 272.5690 0001285  87.9264 272.1875 15.08844390117973,6917.867,95.437,540.621,538.843,0.0
50831.0,STARLINK-3299,PAYLOAD,2024-02-24 07:44:29,15.08843539,0.00012,53.2161,270.7808,89.7832,270.3297,1.4478e-05,-5.7e-07,0.0,0 STARLINK-3299,1 50831U 22001AE  24055.32256900 -.00000057  00000-0  14478-4 0  9996,2 50831  53.2161 270.7808 0001200  89.7832 270.3297 15.08843539118038,6917.87,95.437,540.565,538.904,0.0
50831.0,STARLINK-3299,PAYLOAD,2024-02-24 20:27:35,15.08830952,0.0001164,53.2161,268.4026,94.3434,265.7691,0.00018599,2.673e-05,0.0,0 STARLINK-3299,1 50831U 22001AE  24055.85249260  .00002673  00000-0  18599-3 0  9997,2 50831  53.2161 268.4026 0001164  94.3434 265.7691 15.08830952119383,6917.908,95.438,540.578,538.968,0.0
50831.0,STARLINK-3299,PAYLOAD,2024-02-24 23:38:20,15.08846093,0.0001252,53.216,267.8061,94.4434,265.6701,5.8127e-05,6.37e-06,0.0,0 STARLINK-3299,1 50831U 22001AE  24055.98496527  .00000637  00000-0  58127-4 0  9991,2 50831  53.2160 267.8061 0001252  94.4434 265.6701 15.08846093119400,6917.862,95.437,540.593,538.861,0.0
50831.0,STARLINK-3299,PAYLOAD,2024-02-25 13:56:49,15.08840516,0.0001281,53.216,265.1326,86.4642,273.6497,4.6764e-05,4.56e-06,0.0,0 STARLINK-3299,1 50831U 22001AE  24056.58112820  .00000456  00000-0  46764-4 0  9992,2 50831  53.2160 265.1326 0001281  86.4642 273.6497 15.08840516118223,6917.879,95.438,540.63,538.858,0.0
50831.0,STARLINK-3299,PAYLOAD,2024-02-25 20:18:21,15.08846093,0.0001327,53.2152,263.941,96.4041,263.7102,8.2837e-05,1.031e-05,0.0,0 STARLINK-3299,1 50831U 22001AE  24056.84608261  .00001031  00000-0  82837-4 0  9991,2 50831  53.2152 263.9410 0001327  96.4041 263.7102 15.08846093118262,6917.862,95.437,540.645,538.809,0.0
50831.0,STARLINK-3299,PAYLOAD,2024-02-26 13:47:37,15.08828251,0.0001407,53.2146,260.6701,96.2562,263.859,-7.9364e-05,-1.55e-05,0.0,0 STARLINK-3299,1 50831U 22001AE  24057.57474275 -.00001550  00000-0 -79364-4 0  9997,2 50831  53.2146 260.6701 0001407  96.2562 263.8590 15.08828251118377,6917.916,95.438,540.755,538.808,0.0
50831.0,STARLINK-3299,PAYLOAD,2024-02-26 20:09:11,15.08809078,0.000129,53.2163,259.4803,95.667,264.447,-0.00022852,-3.92e-05,0.0,0 STARLINK-3299,1 50831U 22001AE  24057.83972216 -.00003920  00000-0 -22852-3 0  9996,2 50831  53.2163 259.4803 0001290  95.6670 264.4470 15.08809078119683,6917.975,95.44,540.732,538.947,0.0
50831.0,STARLINK-3299,PAYLOAD,2024-02-27 19:59:58,15.08829789,0.000107,53.2161,255.0224,85.4141,274.6973,-1.6907e-05,-5.57e-06,0.0,0 STARLINK-3299,1 50831U 22001AE  24058.83331244 -.00000557  00000-0 -16907-4 0  9995,2 50831  53.2161 255.0224 0001070  85.4141 274.6973 15.08829789119835,6917.912,95.438,540.517,539.036,0.0
50831.0,STARLINK-3299,PAYLOAD,2024-02-27 23:10:43,15.08839203,0.0001117,53.2161,254.425,77.9988,282.113,2.8028e-05,1.58e-06,0.0,0 STARLINK-3299,1 50831U 22001AE  24058.96578647  .00000158  00000-0  28028-4 0  9991,2 50831  53.2161 254.4250 0001117  77.9988 282.1130 15.08839203119857,6917.883,95.438,540.521,538.975,0.0
50831.0,STARLINK-3299,PAYLOAD,2024-02-28 13:29:12,15.08829461,0.0001137,53.2159,251.7488,61.5707,298.5399,0.00035967,5.439e-05,0.0,0 STARLINK-3299,1 50831U 22001AE  24059.56194518  .00005439  00000-0  35967-3 0  9995,2 50831  53.2159 251.7488 0001137  61.5707 298.5399 15.08829461118679,6917.913,95.438,540.564,538.991,0.0
50831.0,STARLINK-3299,PAYLOAD,2024-02-28 19:50:44,15.0883813,0.0001115,53.2161,250.5603,71.7615,288.3498,0.00043989,6.72e-05,0.0,0 STARLINK-3299,1 50831U 22001AE  24059.82690274  .00006720  00000-0  43989-3 0  9991,2 50831  53.2161 250.5603 0001115  71.7615 288.3498 15.08838130118710,6917.886,95.438,540.522,538.98,0.0
50831.0,STARLINK-3299,PAYLOAD,2024-02-29 05:23:03,15.08835379,0.0001528,53.2155,248.7762,45.4411,314.6705,0.00040615,6.181e-05,0.0,0 STARLINK-3299,1 50831U 22001AE  24060.22434974  .00006181  00000-0  40615-3 0  9994,2 50831  53.2155 248.7762 0001528  45.4411 314.6705 15.08835379120043,6917.895,95.438,540.817,538.702,0.0
50831.0,STARLINK-3299,PAYLOAD,2024-02-29 21:16:54,15.08856727,0.0001064,53.2161,245.803,78.9749,281.1363,0.00015012,2.103e-05,0.0,0 STARLINK-3299,1 50831U 22001AE  24060.88673638  .00002103  00000-0  15012-3 0  9991,2 50831  53.2161 245.8030 0001064  78.9749 281.1363 15.08856727120145,6917.829,95.436,540.43,538.958,0.0
50831.0,STARLINK-3299,PAYLOAD,2024-03-01 11:35:22,15.08845906,0.0001147,53.2159,243.1258,100.0444,260.0677,2.2403e-05,6.9e-07,0.0,0 STARLINK-3299,1 50831U 22001AE  24061.48290353  .00000069  00000-0  22403-4 0  9999,2 50831  53.2159 243.1258 0001147 100.0444 260.0677 15.08845906118964,6917.862,95.437,540.521,538.934,0.0
